COSMOS 2425 (716)       
1 29670U 06062A   21071.66650596  .00000026  00000-0  00000-0 0  9990
2 29670  64.8714 258.7174 0024715 349.8382  65.0797  2.13113719110617
COSMOS 2433 (720)       
1 32275U 07052A   21071.72069455 -.00000085  00000-0  00000-0 0  9996
2 32275  66.0463  19.9968 0004461 276.1921 358.3228  2.13104170104129
COSMOS 2432 (719)       
1 32276U 07052B   21071.79242440 -.00000085  00000-0  00000-0 0  9991
2 32276  66.0592  20.0880 0012266 324.8698 314.1813  2.13103544104127
COSMOS 2434 (721)       
1 32393U 07065A   21071.62349105  .00000025  00000-0  00000-0 0  9996
2 32393  64.4916 257.2224 0005087  77.2884  10.7741  2.13103071102834
COSMOS 2436 (723)       
1 32395U 07065C   21071.32774133  .00000028  00000-0  00000+0 0  9990
2 32395  64.4969 257.2856 0016102   7.6295 349.6780  2.13103000102758
COSMOS 2456 (730)       
1 36111U 09070A   21071.64365017  .00000027  00000-0  00000-0 0  9990
2 36111  64.2595 136.9027 0004329 308.9005 326.4474  2.13099132 87494
COSMOS 2457 (733)       
1 36112U 09070B   21071.50884924  .00000027  00000-0  00000-0 0  9999
2 36112  64.2431 136.7935 0005150 173.8528 121.6909  2.13101365 87492
COSMOS 2459 (731)       
1 36400U 10007A   21071.44541454 -.00000086  00000-0  00000-0 0  9998
2 36400  65.9443  18.9429 0026931 345.9233 293.6888  2.13105044 85837
COSMOS 2461 (735)       
1 36401U 10007B   21071.92079999 -.00000086  00000-0  00000-0 0  9992
2 36401  65.9414  18.8930 0021269   1.3731 284.6952  2.13103775 85850
COSMOS 2460 (732)       
1 36402U 10007C   21071.41000573 -.00000087  00000-0  00000-0 0  9990
2 36402  65.9267  18.8693 0002332 309.1820 248.8681  2.13106576 85843
COSMOS 2464 (736)       
1 37139U 10041C   21069.38140613  .00000051  00000-0  00000+0 0  9998
2 37139  64.0887 256.6070 0029157  14.1168  15.5396  2.13100780 81863
COSMOS 2471 (701K)      
1 37372U 11009A   21071.63238319 -.00000086  00000-0  00000+0 0  9993
2 37372  65.9233  18.7988 0013729 231.1811 300.2519  2.13081294 78120
COSMOS 2476 (744)       
1 37867U 11064A   21071.40890176  .00000025  00000-0  00000-0 0  9996
2 37867  64.5559 138.0857 0020926 237.9353 118.8444  2.13101845 72835
COSMOS 2477 (745)       
1 37868U 11064B   21071.18561094  .00000023  00000-0  00000-0 0  9994
2 37868  64.5653 138.1533 0018427 239.1206 124.7262  2.13101642 72791
COSMOS 2475 (743)       
1 37869U 11064C   21071.58184977  .00000026  00000-0  00000-0 0  9993
2 37869  64.5709 138.1421 0022278 258.7669   6.6714  2.13101831 72801
COSMOS 2485 (747)       
1 39155U 13019A   21071.47962959  .00000025  00000-0  00000-0 0  9996
2 39155  64.7223 138.4110 0021367 233.6114 221.9211  2.13101798 61317
COSMOS 2492 (754)       
1 39620U 14012A   21071.65035450 -.00000086  00000-0  00000-0 0  9992
2 39620  65.8170  18.6054 0015556 322.3040 299.1050  2.13103198 54260
COSMOS 2500 (755)       
1 40001U 14032A   21070.91047242 -.00000088  00000-0  00000-0 0  9991
2 40001  65.7569  18.5272 0006229 226.1961  47.4676  2.13102561 52468
COSMOS 2501 (702K)      
1 40315U 14075A   21071.57471422  .00000024  00000-0  00000-0 0  9999
2 40315  63.8009 257.3740 0015505 207.0774  22.1523  2.13101343 48883
COSMOS 2514 (751)       
1 41330U 16008A   21071.48835688 -.00000087  00000-0  00000-0 0  9993
2 41330  65.5582  18.3123 0009807 227.3539 312.5969  2.13102899 39649
COSMOS 2516 (753)       
1 41554U 16032A   21071.91425510  .00000022  00000-0  00000-0 0  9993
2 41554  64.0250 257.5086 0011162 213.3416 186.4963  2.13106820 37260
COSMOS 2522 (752)       
1 42939U 17055A   21071.61218854  .00000025  00000-0  00000-0 0  9998
2 42939  64.2599 257.7774 0004977 249.5130 143.4588  2.13101975 27016
COSMOS 2527 (756)       
1 43508U 18053A   21071.91149319  .00000029  00000-0  00000-0 0  9996
2 43508  64.8871 138.3004 0008231 233.9133  60.6888  2.13102536 21308
COSMOS 2529 (757)       
1 43687U 18086A   21071.20701551  .00000029  00000-0  00000-0 0  9994
2 43687  64.4732 257.9840 0007682 280.1823 117.5063  2.13102101 18315
COSMOS 2534 (758)       
1 44299U 19030A   21071.23376595  .00000029  00000-0  00000+0 0  9992
2 44299  64.5415 257.8260 0011235 300.1974 252.8888  2.13101947 13958
COSMOS 2544 (759)       
1 44850U 19088A   21071.84351550  .00000028  00000-0  00000-0 0  9999
2 44850  64.8714 138.1639 0012424 263.4385  22.8586  2.13102328  9741
COSMOS 2545 (760)       
1 45358U 20018A   21071.89246245 -.00000087  00000-0  00000-0 0  9993
2 45358  64.8891  19.2867 0010243 261.8382 272.1514  2.13102740  7690
